[
    {
        "Altitude(m)": 622205.8332573322,
        "Argument of Periapsis(deg)": 0.0,
        "Eccentricity": 0.0,
        "Inclination(deg)": 60.0,
        "Latitude(deg)": -52.16234093120818,
        "Longitude(deg)": 67.70047590087722,
        "Mean Anomaly(deg)": -114.5455,
        "RAAN(deg)": 300.0,
        "Satellite Name": "Test1 1335",
        "Satellite Number": 1335,
        "Semi-Major Axis(m)": 6980739.136638005,
        "Time(s)": 0
    },
    {
        "Altitude(m)": 622344.7395999783,
        "Argument of Periapsis(deg)": 0.00010418945913296404,
        "Eccentricity": 0.0,
        "Inclination(deg)": 60.0,
        "Latitude(deg)": -52.519919674918626,
        "Longitude(deg)": 68.48168764420116,
        "Mean Anomaly(deg)": -113.92539385453817,
        "RAAN(deg)": 299.99957995086027,
        "Satellite Name": "Test1 1335",
        "Satellite Number": 1335,
        "Semi-Major Axis(m)": 6980739.136638005,
        "Time(s)": 10
    }
]